TIANMU-1 08             
1 57400U 23101B   26066.00237819  .00000346  00000+0  14775-4 0  9993
2 57400  97.2717 118.7901 0006380 134.2174 225.9592 15.29204229146020
STARLINK-35692          
1 66513U 25263AE  26068.14409341  .00028183  00000+0  10285-2 0  9996
2 66513  43.0000 353.9242 0000937 256.6074 103.4673 15.27618533 18810
